H1 CPF 01  gfz 2021 08 22 00  7341 terrasarx 
H2 0702601  6201 31698    2021 08 22 00 59 42 2021 08 27 00 00 42   120 1 1  0 0 0
H9
10 0 59450  29502.000000  0    3297671.836  -2928721.147  -5298931.759
10 0 59450  29622.000000  0    2612485.811  -2609722.921  -5822249.573
10 0 59450  29742.000000  0    1888056.068  -2233107.103  -6243823.678
10 0 59450  29862.000000  0    1137935.923  -1804872.774  -6556374.978
10 0 59450  29982.000000  0     375984.748  -1332136.349  -6754518.785
10 0 59450  30102.000000  0    -383884.856   -823012.832  -6834847.233
10 0 59450  30222.000000  0   -1127955.455   -286478.342  -6795980.683
10 0 59450  30342.000000  0   -1842946.681    267784.578  -6638588.716
10 0 59450  30462.000000  0   -2516246.827    829557.337  -6365378.969
10 0 59450  30582.000000  0   -3136130.302   1388268.593  -5981055.629
10 0 59450  30702.000000  0   -3691959.486   1933188.333  -5492247.784
10 0 59450  30822.000000  0   -4174369.529   2453630.515  -4907407.035
10 0 59450  30942.000000  0   -4575431.208   2939161.443  -4236672.084
10 0 59450  31062.000000  0   -4888787.443   3379808.429  -3491702.630
10 0 59450  31182.000000  0   -5109762.134   3766265.709  -2685485.973
10 0 59450  31302.000000  0   -5235437.830   4090093.213  -1832115.466
10 0 59450  31422.000000  0   -5264699.865   4343902.238   -946545.896
10 0 59450  31542.000000  0   -5198245.577   4521524.056    -44328.784
10 0 59450  31662.000000  0   -5038556.768   4618156.901    858666.856
10 0 59450  31782.000000  0   -4789835.196   4630485.534   1746542.947
10 0 59450  31902.000000  0   -4457902.650   4556770.562   2603661.655
10 0 59450  32022.000000  0   -4050068.077   4396906.287   3414929.071
10 0 59450  32142.000000  0   -3574966.054   4152445.008   4166067.399
10 0 59450  32262.000000  0   -3042371.511   3826587.353   4843869.990
10 0 59450  32382.000000  0   -2462994.682   3424139.401   5436435.181
10 0 59450  32502.000000  0   -1848260.877   2951437.566   5933373.553
10 0 59450  32622.000000  0   -1210080.799   2416243.594   6325985.704
10 0 59450  32742.000000  0    -560616.760   1827611.652   6607407.420
10 0 59450  32862.000000  0      87948.627   1195732.228   6772722.943
10 0 59450  32982.000000  0     723640.866    531753.796   6819046.094
10 0 59450  33102.000000  0    1334913.758   -152413.734   6745566.826
10 0 59450  33222.000000  0    1910857.980   -844311.698   6553565.268
10 0 59450  33342.000000  0    2441395.349  -1531159.039   6246391.151
10 0 59450  33462.000000  0    2917456.205  -2200087.570   5829410.112
10 0 59450  33582.000000  0    3331137.298  -2838384.029   5309915.389
10 0 59450  33702.000000  0    3675836.275  -3433733.497   4697006.299
10 0 59450  33822.000000  0    3946361.339  -3974460.555   4001434.476
10 0 59450  33942.000000  0    4139013.441  -4449763.141   3235418.782
10 0 59450  34062.000000  0    4251638.507  -4849933.920   2412431.906
10 0 59450  34182.000000  0    4283648.986  -5166563.676   1546961.364
10 0 59450  34302.000000  0    4236013.015  -5392721.193    654249.414
10 0 59450  34422.000000  0    4111211.066  -5523104.594   -249982.455
10 0 59450  34542.000000  0    3913163.025  -5554161.644  -1149817.876
10 0 59450  34662.000000  0    3647125.063  -5484175.309  -2029435.624
10 0 59450  34782.000000  0    3319559.834  -5313310.830  -2873395.119
10 0 59450  34902.000000  0    2937984.586  -5043625.305  -3666913.311
10 0 59450  35022.000000  0    2510799.506  -4679038.978  -4396126.037
10 0 59450  35142.000000  0    2047101.770  -4225270.136  -5048328.446
10 0 59450  35262.000000  0    1556491.363  -3689735.264  -5612190.122
10 0 59450  35382.000000  0    1048873.201  -3081419.221  -6077942.360
10 0 59450  35502.000000  0     534258.360  -2410718.650  -6437536.965
10 0 59450  35622.000000  0      22568.662  -1689260.297  -6684774.515
10 0 59450  35742.000000  0    -476550.720   -929698.118  -6815400.642
10 0 59450  35862.000000  0    -953907.867   -145493.244  -6827171.127
10 0 59450  35982.000000  0   -1400929.120    649319.761  -6719885.446
10 0 59450  36102.000000  0   -1809809.587   1440377.456  -6495389.369
10 0 59450  36222.000000  0   -2173646.116   2213240.709  -6157546.437
10 0 59450  36342.000000  0   -2486552.777   2953652.294  -5712179.692
10 0 59450  36462.000000  0   -2743756.638   3647797.365  -5166981.635
10 0 59450  36582.000000  0   -2941672.469   4282561.573  -4531393.281
10 0 59450  36702.000000  0   -3077954.963   4845782.742  -3816450.926
10 0 59450  36822.000000  0   -3151525.611   5326489.079  -3034602.354
10 0 59450  36942.000000  0   -3162574.414   5715119.445  -2199497.691
10 0 59450  37062.000000  0   -3112537.135   6003723.465  -1325755.062
10 0 59450  37182.000000  0   -3004045.290   6186132.879   -428703.002
10 0 59450  37302.000000  0   -2840852.338   6258098.784    475891.390
10 0 59450  37422.000000  0   -2627737.898   6217395.249   1372107.282
10 0 59450  37542.000000  0   -2370387.378   6063879.580   2244162.067
10 0 59450  37662.000000  0   -2075253.131   5799508.340   3076698.416
10 0 59450  37782.000000  0   -1749402.196   5428311.766   3855061.308
10 0 59450  37902.000000  0   -1400354.054   4956327.468   4565560.656
10 0 59450  38022.000000  0   -1035911.673   4391494.475   5195714.723
10 0 59450  38142.000000  0    -663989.198   3743510.445   5734468.275
10 0 59450  38262.000000  0    -292443.271   3023656.844   6172382.976
10 0 59450  38382.000000  0      71090.595   2244594.570   6501797.285
10 0 59450  38502.000000  0     419352.644   1420136.719   6716954.224
10 0 59450  38622.000000  0     745602.281    565000.222   6814096.519
10 0 59450  38742.000000  0    1043746.990   -305457.193   6791527.013
10 0 59450  38862.000000  0    1308455.170  -1175511.615   6649637.557
10 0 59450  38982.000000  0    1535251.424  -2029356.626   6390903.006
10 0 59450  39102.000000  0    1720592.581  -2851390.226   6019841.461
10 0 59450  39222.000000  0    1861923.358  -3626501.714   5542940.181
10 0 59450  39342.000000  0    1957710.431  -4340352.545   4968547.156
10 0 59450  39462.000000  0    2007454.990  -4979645.293   4306730.672
10 0 59450  39582.000000  0    2011684.452  -5532379.131   3569108.910
10 0 59450  39702.000000  0    1971921.097  -5988084.757   2768647.412
10 0 59450  39822.000000  0    1890627.979  -6338030.947   1919430.286
10 0 59450  39942.000000  0    1771135.988  -6575399.412   1036409.891
10 0 59450  40062.000000  0    1617551.576  -6695424.622    135138.404
10 0 59450  40182.000000  0    1434647.355  -6695494.514   -768513.638
10 0 59450  40302.000000  0    1227737.901  -6575206.942  -1658648.604
10 0 59450  40422.000000  0    1002544.098  -6336377.970  -2519629.944
10 0 59450  40542.000000  0     765051.038  -5983006.933  -3336362.914
10 0 59450  40662.000000  0     521364.428  -5521198.776  -4094562.452
10 0 59450  40782.000000  0     277566.015  -4959046.095  -4781002.947
10 0 59450  40902.000000  0      39572.826  -4306474.563  -5383744.250
10 0 59450  41022.000000  0    -186996.205  -3575056.803  -5892331.937
10 0 59450  41142.000000  0    -396943.630  -2777798.192  -6297968.619
10 0 59450  41262.000000  0    -585604.459  -1928900.305  -6593654.763
10 0 59450  41382.000000  0    -748943.046  -1043506.611  -6774298.117
10 0 59450  41502.000000  0    -883634.249   -137434.844  -6836792.729
10 0 59450  41622.000000  0    -987127.533    773101.002  -6780065.755
10 0 59450  41742.000000  0   -1057693.637   1671773.199  -6605093.179
10 0 59450  41862.000000  0   -1094453.016   2542425.631  -6314884.614
10 0 59450  41982.000000  0   -1097385.539   3369357.779  -5914438.406
10 0 59450  42102.000000  0   -1067321.778   4137605.481  -5410664.943
10 0 59450  42222.000000  0   -1005915.236   4833211.814  -4812278.384
10 0 59450  42342.000000  0    -915596.650   5443485.486  -4129657.406
10 0 59450  42462.000000  0    -799510.529   5957240.344  -3374674.456
10 0 59450  42582.000000  0    -661434.751   6365010.217  -2560496.720
10 0 59450  42702.000000  0    -505684.763   6659235.593  -1701361.322
10 0 59450  42822.000000  0    -337004.810   6834416.031   -812326.852
10 0 59450  42942.000000  0    -160447.883   6887224.233     90993.141
10 0 59450  43062.000000  0      18752.645   6816578.326    992710.458
10 0 59450  43182.000000  0     195315.811   6623669.067   1876950.992
10 0 59450  43302.000000  0     364046.275   6311939.153   2728143.788
10 0 59450  43422.000000  0     519964.931   5887017.553   3531302.111
10 0 59450  43542.000000  0     658434.469   5356612.279   4272292.479
10 0 59450  43662.000000  0     775276.923   4730364.256   4938090.184
10 0 59450  43782.000000  0     866877.642   4019656.389   5517009.323
10 0 59450  43902.000000  0     930277.079   3237398.283   5998902.302
10 0 59450  44022.000000  0     963246.483   2397784.128   6375333.831
10 0 59450  44142.000000  0     964345.284   1516029.011   6639722.822
10 0 59450  44262.000000  0     932960.554    608089.092   6787451.503
10 0 59450  44382.000000  0     869327.552   -309627.922   6815940.028
10 0 59450  44502.000000  0     774530.785  -1220557.905   6724689.829
10 0 59450  44622.000000  0     650485.434  -2108279.324   6515292.495
10 0 59450  44742.000000  0     499899.354  -2956809.248   6191404.350
10 0 59450  44862.000000  0     326216.264  -3750893.320   5758685.399
10 0 59450  44982.000000  0     133541.812  -4476280.787   5224703.883
10 0 59450  45102.000000  0     -73445.950  -5119983.494   4598811.346
10 0 59450  45222.000000  0    -289601.146  -5670517.175   3891986.510
10 0 59450  45342.000000  0    -509428.808  -6118117.061   3116645.710
10 0 59450  45462.000000  0    -727214.123  -6454921.269   2286425.437
10 0 59450  45582.000000  0    -937158.017  -6675117.685   1415940.242
10 0 59450  45702.000000  0   -1133517.589  -6775053.573    520521.652
10 0 59450  45822.000000  0   -1310748.205  -6753301.255   -384061.064
10 0 59450  45942.000000  0   -1463640.896  -6610677.093  -1281887.957
99
